FENGYUN 1C DEB          
1 36670U 99025DYQ 17345.30597887  .00001007  00000-0  42629-3 0  9998
2 36670  98.8415  24.8159 0042178 349.4901  10.5394 14.27293034213395
